[{"OBJECT_NAME":"DOJO","OBJECT_ID":"2025-185F","EPOCH":"2026-03-09T17:11:19.626432","MEAN_MOTION":14.77363091,"ECCENTRICITY":0.00117501,"INCLINATION":97.9656,"RA_OF_ASC_NODE":153.1684,"ARG_OF_PERICENTER":55.9365,"MEAN_ANOMALY":304.2959,"EPHEMERIS_TYPE":0,"CLASSIFICATION_TYPE":"U","NORAD_CAT_ID":65302,"ELEMENT_SET_NO":999,"REV_AT_EPOCH":2914,"BSTAR":0.00075654511,"MEAN_MOTION_DOT":5.335e-5,"MEAN_MOTION_DDOT":0},{"OBJECT_NAME":"YAOGAN-7 DEB","OBJECT_ID":"2009-069B","EPOCH":"2026-03-09T13:32:27.184992","MEAN_MOTION":14.33105644,"ECCENTRICITY":0.0208019,"INCLINATION":97.8383,"RA_OF_ASC_NODE":340.3535,"ARG_OF_PERICENTER":215.7943,"MEAN_ANOMALY":142.9153,"EPHEMERIS_TYPE":0,"CLASSIFICATION_TYPE":"U","NORAD_CAT_ID":38265,"ELEMENT_SET_NO":999,"REV_AT_EPOCH":83791,"BSTAR":0.00057987,"MEAN_MOTION_DOT":1.98e-5,"MEAN_MOTION_DDOT":0}]
